S-NET B                 
1 43187U 18014H   22241.70454013  .00000682  00000+0  62388-4 0  9998
2 43187  97.6510 145.9774 0012441  56.1013 304.1391 14.98114018249887
S-NET A                 
1 43188U 18014J   22241.70484316  .00000679  00000+0  62137-4 0  9996
2 43188  97.6515 146.0452 0012429  56.2614 303.9791 14.98113588249884
S-NET C                 
1 43189U 18014K   22241.70567247  .00000599  00000+0  55464-4 0  9998
2 43189  97.6509 145.9662 0012390  55.9735 304.2662 14.98110245248434
FENGMANIU-1 (FMN-1)     
1 43192U 18015A   22242.19417146  .00019025  00000+0  45206-3 0  9995
2 43192  97.5430  29.5140 0010849 125.8947  48.8364 15.41659914254793
SHAONIAN XING           
1 43199U 18015H   22242.17129235  .00010097  00000+0  28805-3 0  9995
2 43199  97.5219  23.9408 0013741 136.3210  38.7360 15.36158522254757
LUOJIA-1 01             
1 43485U 18048B   22242.16321992  .00000416  00000+0  65587-4 0  9995
2 43485  97.9321 322.2352 0010359 328.3609  31.6987 14.77473595228755
SURFSAT                 
1 43614U 18070B   22242.19763170  .00029964  00000+0  36548-3 0  9998
2 43614  93.0222 130.1616 0013333  87.3050 272.9741 15.60271671222545
CP7 (DAVE)              
1 43615U 18070C   22241.18662143  .00025241  00000+0  33086-3 0  9993
2 43615  93.0216 129.5028 0013964  92.8025 267.4838 15.58372080222348
ELFIN-B                 
1 43616U 18070D   22242.14494034  .00180585  00000+0  75589-3 0  9990
2 43616  93.0082 131.8692 0010262  89.1961 271.0494 15.85074251222954
ELFIN-A                 
1 43617U 18070E   22242.14037288  .00284861  30838-4  80056-3 0  9999
2 43617  93.0136 133.4872 0008746  99.7201 260.5071 15.93472029223039
CZ-4B R/B               
1 43656U 18081B   22241.95332945  .00000125  00000+0  56156-4 0  9997
2 43656  99.4081  21.7518 0207383 293.1834  64.7622 14.30595269200861
CUBEBEL-1 (BSUSAT-1)    
1 43666U 18083E   22242.07346134  .00004721  00000+0  19581-3 0  9995
2 43666  97.4165 269.9625 0014521  77.5813   8.1310 15.24260407212696
CHANGSHAGAOXIN (TY 4-01)
1 43669U 18083H   22242.27077890  .00004350  00000+0  18974-3 0  9993
2 43669  97.4119 265.9072 0011199  76.4431  52.8404 15.22632769212537
TEN-KOH                 
1 43677U 18084G   22241.62116125  .00000610  00000+0  67139-4 0  9999
2 43677  97.9738  12.3811 0016505  34.6844 325.5447 14.91247555208580
DIWATA-2B               
1 43678U 18084H   22242.14331040  .00000702  00000+0  74560-4 0  9991
2 43678  97.9806  16.3167 0010839  48.6195 311.5966 14.92271790208842
STARS-AO                
1 43679U 18084J   22241.34216036  .00001286  00000+0  12677-3 0  9998
2 43679  97.9844  17.6123 0009939  54.6398 305.5748 14.93807509208825
AUTCUBE 2               
1 43681U 18084K   22241.32368243  .00001205  00000+0  12115-3 0  9995
2 43681  97.9804  16.1340 0010234  49.9809 310.2306 14.93128943208723
IRVINE01                
1 43693U 18088D   22242.01803450  .00033921  00000+0  78654-3 0  9993
2 43693  85.0234 260.7893 0012129 174.3437 185.7956 15.42175897211541
ES'HAIL 2               
1 43700U 18090A   22242.12547961  .00000145  00000+0  00000+0 0  9997
2 43700   0.0175 146.8624 0001950  47.5042 214.8804  1.00271616 14014
FACSAT-1                
1 43721U 18096C   22242.11938500  .00012150  00000+0  32054-3 0  9995
2 43721  97.3482 321.9731 0013884 144.6728 303.1440 15.38529291209296
CENTAURI-2              
1 43722U 18096D   22242.18664567  .00019079  00000+0  43839-3 0  9992
2 43722  97.3525 324.4709 0012826 141.9949 218.2206 15.42639257209439
3CAT-1                  
1 43728U 18096K   22241.47577523  .00020611  00000+0  47411-3 0  9998
2 43728  97.3538 324.5208 0012747 145.9110 214.2958 15.42590982209363
INNOSAT-2               
1 43738U 18096V   22242.21522368  .00049911  00000+0  70855-3 0  9991
2 43738  97.3628 332.9400 0012342 135.5959 310.0654 15.56188393209955
REAKTOR HELLO WORLD     
1 43743U 18096AA  22242.20738796  .00008122  00000+0  23751-3 0  9992
2 43743  97.3494 321.8279 0015416 150.2294 209.9830 15.35415998209272
ELYSIUM STAR 2 & LFF    
1 43760U 18099C   22242.16394474  .00002153  00000+0  18131-3 0  9994
2 43760  97.6249 309.1273 0013653  18.0354 342.1351 14.99195691204169
2018-099D               
1 43761U 18099D   22241.91438013  .00000267  00000+0  28812-4 0  9997
2 43761  97.6169 306.6665 0014919  27.7207 332.4807 14.96012794204008
AISTECHSAT 2            
1 43768U 18099L   22242.15090236  .00000619  00000+0  60186-4 0  9993
2 43768  97.6118 305.3727 0011840  28.5438 331.6430 14.95973808203709
FOX-1CLIFF (AO-95)      
1 43770U 18099N   22242.13684928  .00002212  00000+0  19825-3 0  9995
2 43770  97.6163 306.5681 0014995  34.1430 326.0745 14.96719560204031
RANGE-A                 
1 43772U 18099Q   22242.16530899  .00001023  00000+0  92744-4 0  9998
2 43772  97.6269 308.4480 0014042  20.0672 340.1099 14.97418889204066
RANGE-B                 
1 43773U 18099R   22242.14770078  .00000583  00000+0  56639-4 0  9995
2 43773  97.6080 305.3387 0013759  22.6323 337.5502 14.96236423204010
2018-099T               
1 43775U 18099T   22242.14226078  .00000936  00000+0  87922-4 0  9994
2 43775  97.6158 306.6372 0014975  26.7258 333.4732 14.96179542204017
MOVE-II                 
1 43780U 18099Y   22242.16220141  .00001486  00000+0  12996-3 0  9996
2 43780  97.6193 307.9043 0013366  28.1166 332.0776 14.98184996204090
SNUSAT-2                
1 43782U 18099AA  22242.17620202  .00001083  00000+0  99305-4 0  9994
2 43782  97.6152 307.0865 0012533  20.0180 340.1531 14.96858265204063
SNUGLITE                
1 43784U 18099AC  22242.13587348  .00001848  00000+0  16479-3 0  9994
2 43784  97.6123 306.6780 0015211  28.3725 331.8322 14.97103681204089
ITASAT 1                
1 43786U 18099AE  22241.85651413  .00002167  00000+0  19372-3 0  9999
2 43786  97.6179 307.2506 0015159  28.1249 332.0789 14.96825283204038
KAZSCISAT-1             
1 43787U 18099AF  22242.14526892  .00001986  00000+0  17200-3 0  9991
2 43787  97.6114 306.7890 0014136  23.7325 336.4547 14.98170998204137
EAGLET-I                
1 43790U 18099AJ  22242.14538033  .00001140  00000+0  10397-3 0  9997
2 43790  97.6179 308.0734 0013842  31.5326 328.6723 14.96956173203813
ESEO                    
1 43792U 18099AL  22242.17689522  .00000431  00000+0  43073-4 0  9992
2 43792  97.6122 307.2113 0013629  27.9989 332.1964 14.96304535203852
CSIM-FD                 
1 43793U 18099AM  22242.16898831  .00001702  00000+0  14564-3 0  9991
2 43793  97.6196 308.8835 0012595  18.1341 342.0328 14.98858847203921
ASTROCAST 0.1           
1 43798U 18099AS  22242.15247413  .00001873  00000+0  16322-3 0  9992
2 43798  97.6198 308.6589 0012172   9.8003 350.3454 14.98017386204147
JY1SAT (JO-97)          
1 43803U 18099AX  22242.18257945  .00001407  00000+0  12577-3 0  9994
2 43803  97.6137 307.3465 0014802  25.4112 334.7835 14.97377686204109
SUOMI-100               
1 43804U 18099AY  22242.13875152  .00001806  00000+0  16051-3 0  9990
2 43804  97.6144 307.2103 0015304  27.3694 332.8331 14.97271383204107
AL-FARABI 2             
1 43805U 18099AZ  22242.22961741  .00000706  00000+0  64670-4 0  9990
2 43805  97.6171 307.8724 0015264  24.3972 335.7970 14.97916790204147
CENTAURI-1              
1 43809U 18099BD  22241.18390435  .00001091  00000+0  99787-4 0  9999
2 43809  97.6149 306.5735 0015238  30.3283 329.8818 14.96930531203655
CHOMPTT                 
1 43855U 18104G   22241.78756562  .00008240  00000+0  29478-3 0  9992
2 43855  85.0389   2.2183 0013778 332.8666  27.1858 15.28527238205928
DAVINCI                 
1 43857U 18104J   22242.03773302  .00041502  00000+0  96870-3 0  9992
2 43857  85.0289 359.0934 0008473 343.5074  16.5902 15.41998015206185
UWE-4                   
1 43880U 18111E   22241.26088298  .00001273  00000+0  11132-3 0  9992
2 43880  97.6598 146.2936 0012764  76.7246 283.5399 14.98458764200605
ZACUBE-2                
1 43907U 18111AH  22242.18635535  .00003647  00000+0  13275-3 0  9993
2 43907  97.1797 125.8749 0019420 171.8041 344.3679 15.28665835204550
MICRODRAGON             
1 43935U 19003D   22241.72317195  .00004038  00000+0  15682-3 0  9992
2 43935  97.1329 268.5548 0014613 274.5407  85.4163 15.26529247200876
AOBA VELOX-IV           
1 43940U 19003J   22241.82104008  .00018555  00000+0  45439-3 0  9998
2 43940  97.1201 275.6529 0014867 232.3440 127.6459 15.40688317201417
M6P                     
1 44109U 19018AF  22241.50056293  .00012902  00000+0  29790-3 0  9991
2 44109  97.3936 326.5003 0044483 222.2310 137.5508 15.41607938190701
FORMOSAT 7-4            
1 44350U 19036M   22242.06483435  .00003367  00000+0  18215-3 0  9998
2 44350  23.9987 237.1656 0005492 239.6503 120.3457 15.09763713174673
PAINANI 1               
1 44365U 19037A   22241.58552354  .00035098  00000+0  43955-3 0  9993
2 44365  44.9968 313.7309 0011280 326.4882  33.5299 15.59144983178630
METEOR-M2 2             
1 44387U 19038A   22242.15516281 -.00000014  00000+0  13400-4 0  9995
2 44387  98.7283 202.3644 0002365  71.1055 289.0384 14.23717890163894
VDNH-80                 
1 44392U 19038G   22242.21882067  .00003565  00000+0  17810-3 0  9997
2 44392  97.6405 212.7885 0017452 232.7803 252.1145 15.18021991174034
D-STAR ONE (LIGHTSAT)   
1 44393U 19038H   22241.87599498  .00008004  00000+0  39434-3 0  9991
2 44393  97.6418 212.3403 0017469 234.5948 125.3654 15.18100109174179
AMGU-1 (AMURSAT)        
1 44394U 19038J   22242.26194921  .00003908  00000+0  19281-3 0  9994
2 44394  97.6420 212.6961 0017565 233.3805 126.5817 15.18395818174235
DOT-1                   
1 44399U 19038P   22241.74244245  .00003433  00000+0  18301-3 0  9991
2 44399  97.6461 210.8150 0020923 243.6860 116.2223 15.15702963174048
SOKRAT                  
1 44404U 19038U   22241.87004705  .00008470  00000+0  41606-3 0  9997
2 44404  97.6406 211.9404 0017509 236.5413 123.4147 15.18183408174156
